ORBCOMM-X               
1 21576U 91050C   24184.75366299  .00000616  00000+0  19849-3 0  9998
2 21576  98.3890 251.7274 0004327 147.0878 213.0582 14.42573695731726
ORBCOMM FM01            
1 23545U 95017A   24185.21785751  .00005510  00000+0  72254-3 0  9990
2 23545  69.9657 218.5440 0004097 169.9089 190.2144 14.80833737561028
ORBCOMM FM02            
1 23546U 95017B   24184.58466134  .00007132  00000+0  93952-3 0  9991
2 23546  69.9682 239.6112 0005479 150.6161 209.5298 14.80492748560521
ORBCOMM FM08            
1 25112U 97084A   24185.20037524  .00001740  00000+0  55845-3 0  9993
2 25112  45.0134 239.6540 0009595 282.2961  77.6814 14.42867453391085
ORBCOMM FM10            
1 25113U 97084B   24184.65712390  .00002236  00000+0  70695-3 0  9994
2 25113  45.0148 244.1519 0007333 258.0554 101.9475 14.42766022565981
ORBCOMM FM11            
1 25114U 97084C   24185.16523523  .00001643  00000+0  53228-3 0  9994
2 25114  45.0130 241.8387 0008130 259.9317 100.0616 14.42634256391058
ORBCOMM FM12            
1 25115U 97084D   24185.54190040  .00001698  00000+0  54927-3 0  9998
2 25115  45.0138 239.7544 0007156 262.2733  97.7305 14.42599096391110
ORBCOMM FM09            
1 25116U 97084E   24184.58503431  .00001924  00000+0  61701-3 0  9994
2 25116  45.0145 245.0268 0008005 246.6195 113.3813 14.42560136390946
